CUPID                   
1 49264U 21088E   26068.66993977  .00009454  00000+0  38662-3 0  9991
2 49264  97.3985 131.0756 0013746  59.9938 300.2662 15.24473777245013
STARLINK-30753          
1 58175U 23167A   26067.56698206  .00001309  00000+0  58451-4 0  9997
2 58175  43.0013 149.7305 0001137 276.4768  83.5954 15.26749256130814
